PROMETHEUS 2-3          
1 41855U 16067H   23340.40329032  .00011663  00000+0  72043-3 0  9993
2 41855  98.0765 138.4305 0013137   7.5808 352.5615 15.09983318386435
DIDO-2                  
1 42000U 17008BE  23340.15425081  .00035544  00000+0  63096-3 0  9997
2 42000  97.1780  34.3447 0005727 119.0807 241.1019 15.50119015378477
AALTO-1                 
1 42775U 17036L   23340.51518408  .00024958  00000+0  53350-3 0  9992
2 42775  97.1337   6.3774 0007154 184.7636 175.3546 15.44792516359031
URSA MAIOR              
1 42776U 17036M   23340.08157618  .00039343  00000+0  73101-3 0  9997
2 42776  97.1340   7.9921 0006696 178.6549 181.4722 15.48787486359085
DIAMOND RED             
1 42783U 17036U   23340.08916485  .00053857  00000+0  78600-3 0  9995
2 42783  97.1268  12.3411 0004663 173.3162 186.8156 15.55495192359360
PEGASUS                 
1 42784U 17036V   23340.58055518  .00249393  00000+0  12217-2 0  9995
2 42784  97.1159  18.5459 0003457 143.6989 216.4515 15.81590029359832
DIAMOND GREEN           
1 42785U 17036W   23340.52518870  .00065240  00000+0  83714-3 0  9993
2 42785  97.1249  13.4252 0004668 166.3675 193.7708 15.58917887359545
DIAMOND BLUE            
1 42786U 17036X   23340.53359376  .00054798  00000+0  75749-3 0  9994
2 42786  97.1279  13.1451 0005049 164.4108 195.7304 15.56962936359526
CICERO 6                
1 42793U 17036AE  23340.55264679  .00039038  00000+0  66976-3 0  9997
2 42793  97.1259  12.2104 0005041 168.1382 191.9990 15.51069783359492
CORVUS BC2              
1 42846U 17042X   23340.51467636  .00002066  00000+0  18928-3 0  9992
2 42846  97.3733 171.6522 0008825   1.5884 358.5365 14.95915935348473
CORVUS BC1              
1 42847U 17042Y   23340.49421639  .00003787  00000+0  34180-3 0  9992
2 42847  97.3731 172.0062 0008463   3.8690 356.2596 14.96037625348488
MIRATA                  
1 43015U 17073C   23340.45853976  .00013794  00000+0  77928-3 0  9999
2 43015  97.6112 223.6076 0192217 197.5222 161.9310 14.98816934327238
MAKERSAT 0              
1 43016U 17073D   23340.61364083  .00009411  00000+0  59291-3 0  9998
2 43016  97.6057 220.4990 0211933 210.7448 148.1217 14.92592831326998
CORVUS BC3              
1 43118U 18004H   23340.15876942  .00043346  00000+0  75838-3 0  9997
2 43118  97.3099  55.3779 0004641 226.8869 133.1995 15.50496859328565
GOMX-4B                 
1 43196U 18015E   23340.40429651  .00027022  00000+0  57458-3 0  9995
2 43196  97.5939 137.5888 0011403 310.0212  50.0034 15.44896236325454
GOMX-4A                 
1 43197U 18015F   23340.75126044  .00029317  00000+0  53049-3 0  9995
2 43197  97.5909 141.0837 0009991 299.0817  60.9432 15.49578025325722
CUBEBEL-1 (BSUSAT-1)    
1 43666U 18083E   23340.76816056  .00083801  00000+0  10793-2 0  9997
2 43666  97.3570  15.1937 0004990 190.7089 169.4062 15.58747343283862
CICERO 10               
1 43690U 18088A   23340.35341624  .00036793  00000+0  73611-3 0  9995
2 43690  85.0252 315.3314 0005252 332.2380  27.8594 15.46596531282003
PROXIMA I               
1 43694U 18088E   23340.70884349  .00045865  00000+0  74055-3 0  9997
2 43694  85.0170 309.8493 0004476 247.5430 112.5354 15.52686283282404
PROXIMA II              
1 43696U 18088G   23340.48540288  .00044952  00000+0  73409-3 0  9993
2 43696  85.0171 310.0973 0004662 248.2077 111.8686 15.52371334282369
SIRION PATHFINDER-2     
1 43759U 18099B   23340.09421440  .00003288  00000+0  26648-3 0  9990
2 43759  97.5487  36.8152 0012067 236.6554 123.3516 15.00316027273381
CORVUS BC4              
1 43767U 18099K   23340.38443485  .00004313  00000+0  35252-3 0  9995
2 43767  97.5496  34.7980 0007385 271.2869  88.7509 14.99857752273329
MOVE-II                 
1 43780U 18099Y   23340.14951168  .00011743  00000+0  75710-3 0  9994
2 43780  97.5510  40.8412 0006736 289.3815  70.6685 15.08443063273613
SPACEBEE-7              
1 43816U 18099BL  23340.12372473  .00010180  00000+0  69969-3 0  9991
2 43816  97.5780  41.7757 0010237 230.3110 129.7215 15.06086594273153
SPACEBEE-5              
1 43817U 18099BM  23340.14928524  .00105089  00000+0  25080-2 0  9996
2 43817  97.5696  54.6849 0002941 227.2246 132.8753 15.41133699273928
SPACEBEE-6              
1 43818U 18099BN  23340.41995454  .00015439  00000+0  89769-3 0  9997
2 43818  97.5694  45.1211 0009684 241.0825 118.9435 15.12125206273535
SHIELDS 1               
1 43850U 18104B   23340.21299569  .00010215  00000+0  32630-3 0  9994
2 43850  85.0267  54.1390 0014130  80.4232 279.8611 15.32211079276415
STF-1                   
1 43852U 18104D   23340.25009728  .00105533  00000+0  10348-2 0  9995
2 43852  85.0149  47.9754 0005565  70.4164 289.7702 15.65720156277076
ZACUBE-2                
1 43907U 18111AH  23340.81222039  .00051811  00000+0  74377-3 0  9990
2 43907  97.1038 217.5357 0009182 315.5242  44.5276 15.55917088275837
LUME 1                  
1 43908U 18111AJ  23340.19879670  .00119207  00000+0  97179-3 0  9990
2 43908  97.1040 222.7697 0004015 308.5604  51.5299 15.70251075276120
SONATE                  
1 44400U 19038Q   23340.45501804  .00013577  00000+0  52535-3 0  9997
2 44400  97.7019 322.3831 0021023  71.6752 288.6770 15.26120400244464
LUCKY-7                 
1 44406U 19038W   23340.51897456  .00018377  00000+0  61258-3 0  9996
2 44406  97.6967 324.6118 0019039  64.1577 296.1624 15.30976143244628
BEESAT 9                
1 44412U 19038AC  23340.45979433  .00046013  00000+0  10292-2 0  9991
2 44412  97.6842 328.3455 0014975  57.4141 302.8549 15.43231197244592
JAISAT-1                
1 44419U 19038F   23340.51555557  .00042672  00000+0  95454-3 0  9993
2 44419  97.6842 329.5241 0014398  54.6275 305.6315 15.43255128244986
DUCHIFAT-3              
1 44854U 19089C   23340.82803578  .00009251  00000+0  55946-3 0  9993
2 44854  36.9589 136.7656 0008492 306.9556  53.0411 15.10160296218903
M2 PATHFINDER           
1 45727U 20037E   23340.44904706  .00003466  00000+0  31809-3 0  9995
2 45727  97.7643 153.2977 0013048  54.7177 305.5262 14.95450541186976
NETSAT-4                
1 46504U 20068U   23340.39522483  .00008053  00000+0  49025-3 0  9991
2 46504  97.7836 288.3409 0008996 313.5223  46.5257 15.10654173174875
NETSAT-3                
1 46505U 20068V   23340.38974589  .00007065  00000+0  43468-3 0  9996
2 46505  97.7812 288.0455 0008488 324.6329  35.4336 15.10319986174879
NETSAT-1                
1 46506U 20068W   23340.42208792  .00006340  00000+0  39891-3 0  9998
2 46506  97.7819 287.8565 0007544 335.5682  24.5188 15.09546317174862
NETSAT-2                
1 46507U 20068X   23340.40146851  .00008304  00000+0  50672-3 0  9996
2 46507  97.7823 288.0431 0006971 345.5136  14.5892 15.10570290174827
WILDTRACKCUBE-SIMBA     
1 47941U 21022K   23340.82105140  .00008016  00000+0  42060-3 0  9994
2 47941  97.4788 234.9373 0019552  97.2416 263.1040 15.15840899149125
BEESAT-6                
1 47957U 21022AB  23339.21160613  .00037750  00000+0  12884-2 0  9995
2 47957  97.4742 237.5997 0016374  86.5153 273.7960 15.30101181148972
SMOG-1                  
1 47964U 21022AJ  23340.50822014  .00031712  00000+0  10289-2 0  9996
2 47964  97.4814 241.5388 0014767  70.2163 290.0669 15.31799336148349
BCCSAT-1                
1 48041U 21022AK  23340.28162193  .00026900  00000+0  99391-3 0  9998
2 48041  97.4806 239.4465 0013038  73.1742 287.0926 15.27624059148160
BEESAT-5                
1 48083U 21022AM  23336.67969229  .00042611  00000+0  13525-2 0  9998
2 48083  97.4595 235.5121 0015628  91.3588 268.9444 15.32424817147779
BEESAT-7                
1 48084U 21022AN  23340.50674849  .00030466  00000+0  10180-2 0  9996
2 48084  97.4745 239.1922 0015420  81.1051 279.1934 15.30849137147916
BEESAT-8                
1 48085U 21022AP  23340.50934557  .00014042  00000+0  62553-3 0  9996
2 48085  97.4838 237.3097 0018033  89.9910 270.3392 15.21406989148338
LEDSAT                  
1 49069U 21073D   23340.13653331  .00011758  00000+0  57392-3 0  9998
2 49069  97.4645  48.3561 0020878 242.4538 117.4575 15.18245093126956
